{
    "links": {
        "self": "http://www.neowsapp.com/rest/v1/neo/3274163?api_key=iIulBulltgU6a56xZRHN4H3l9WmuAYTsLGpBGhQ2"
    },
    "id": "3274163",
    "neo_reference_id": "3274163",
    "name": "(2005 EE169)",
    "designation": "2005 EE169",
    "nasa_jpl_url": "http://ssd.jpl.nasa.gov/sbdb.cgi?sstr=3274163",
    "absolute_magnitude_h": 24.2,
    "estimated_diameter": {
        "kilometers": {
            "estimated_diameter_min": 0.0384197891,
            "estimated_diameter_max": 0.0859092601
        },
        "meters": {
            "estimated_diameter_min": 38.4197891064,
            "estimated_diameter_max": 85.9092601232
        },
        "miles": {
            "estimated_diameter_min": 0.0238729428,
            "estimated_diameter_max": 0.0533815229
        },
        "feet": {
            "estimated_diameter_min": 126.0491808919,
            "estimated_diameter_max": 281.8545369825
        }
    },
    "is_potentially_hazardous_asteroid": false,
    "close_approach_data": [
        {
            "close_approach_date": "2005-04-06",
            "close_approach_date_full": "2005-Apr-06 13:51",
            "epoch_date_close_approach": 1112795460000,
            "relative_velocity": {
                "kilometers_per_second": "8.2549833303",
                "kilometers_per_hour": "29717.9399891317",
                "miles_per_hour": "18465.5722115802"
            },
            "miss_distance": {
                "astronomical": "0.0151539958",
                "lunar": "5.8949043662",
                "kilometers": "2267005.493668946",
                "miles": "1408651.8937096148"
            },
            "orbiting_body": "Earth"
        }
    ],
    "orbital_data": {
        "orbit_id": "10",
        "orbit_determination_date": "2017-04-06 09:11:17",
        "first_observation_date": "2005-03-10",
        "last_observation_date": "2005-04-01",
        "data_arc_in_days": 22,
        "observations_used": 31,
        "orbit_uncertainty": "7",
        "minimum_orbit_intersection": ".0124983",
        "jupiter_tisserand_invariant": "3.405",
        "epoch_osculation": "2459000.5",
        "eccentricity": ".5621709415564701",
        "semi_major_axis": "2.243693467619802",
        "inclination": "1.337766904924186",
        "ascending_node_longitude": "160.0675741199859",
        "orbital_period": "1227.562780304225",
        "perihelion_distance": ".9823541983638766",
        "perihelion_argument": "50.76529261649371",
        "aphelion_distance": "3.505032736875727",
        "perihelion_time": "2458390.280621890480",
        "mean_anomaly": "178.9553900167816",
        "mean_motion": ".2932640234585654",
        "equinox": "J2000",
        "orbit_class": {
            "orbit_class_type": "APO",
            "orbit_class_description": "Near-Earth asteroid orbits which cross the Earth’s orbit similar to that of 1862 Apollo",
            "orbit_class_range": "a (semi-major axis) > 1.0 AU; q (perihelion) < 1.017 AU"
        }
    },
    "is_sentry_object": false
}